CCSDS_OMM_VERS = 2.0
CREATION_DATE  = 
ORIGINATOR     = 

OBJECT_NAME    = SL-16 R/B
OBJECT_ID      = 1998-043G
CENTER_NAME    = EARTH
REF_FRAME      = TEME
TIME_SYSTEM    = UTC
MEAN_ELEMENT_THEORY = SGP/SGP4

EPOCH          = 2026-01-13T07:15:11.884032
MEAN_MOTION    = 14.26034324
ECCENTRICITY   = .00099413
INCLINATION    = 98.8166
RA_OF_ASC_NODE = 326.3041
ARG_OF_PERICENTER = 169.0689
MEAN_ANOMALY   = 191.0708

EPHEMERIS_TYPE = 0
CLASSIFICATION_TYPE = U
NORAD_CAT_ID   = 25400
ELEMENT_SET_NO = 999
REV_AT_EPOCH   = 43109
BSTAR          = .40634196E-4
MEAN_MOTION_DOT = .52E-6
MEAN_MOTION_DDOT = 0

CCSDS_OMM_VERS = 2.0
CREATION_DATE  = 
ORIGINATOR     = 

OBJECT_NAME    = SL-16 R/B
OBJECT_ID      = 1998-045B
CENTER_NAME    = EARTH
REF_FRAME      = TEME
TIME_SYSTEM    = UTC
MEAN_ELEMENT_THEORY = SGP/SGP4

EPOCH          = 2026-01-13T04:43:15.761280
MEAN_MOTION    = 14.16180032
ECCENTRICITY   = .00053312
INCLINATION    = 71.0120
RA_OF_ASC_NODE = 298.2739
ARG_OF_PERICENTER = 119.4381
MEAN_ANOMALY   = 240.7275

EPHEMERIS_TYPE = 0
CLASSIFICATION_TYPE = U
NORAD_CAT_ID   = 25407
ELEMENT_SET_NO = 999
REV_AT_EPOCH   = 41924
BSTAR          = .15308491E-4
MEAN_MOTION_DOT = -.17E-6
MEAN_MOTION_DDOT = 0

CCSDS_OMM_VERS = 2.0
CREATION_DATE  = 
ORIGINATOR     = 

OBJECT_NAME    = ISS (ZARYA)
OBJECT_ID      = 1998-067A
CENTER_NAME    = EARTH
REF_FRAME      = TEME
TIME_SYSTEM    = UTC
MEAN_ELEMENT_THEORY = SGP/SGP4

EPOCH          = 2026-01-13T05:00:55.752768
MEAN_MOTION    = 15.49269250
ECCENTRICITY   = .00077414
INCLINATION    = 51.6330
RA_OF_ASC_NODE = 346.6801
ARG_OF_PERICENTER = 12.6584
MEAN_ANOMALY   = 347.4598

EPHEMERIS_TYPE = 0
CLASSIFICATION_TYPE = U
NORAD_CAT_ID   = 25544
ELEMENT_SET_NO = 999
REV_AT_EPOCH   = 54773
BSTAR          = .16698581E-3
MEAN_MOTION_DOT = .8852E-4
MEAN_MOTION_DDOT = 0

CCSDS_OMM_VERS = 2.0
CREATION_DATE  = 
ORIGINATOR     = 

OBJECT_NAME    = CZ-4B R/B
OBJECT_ID      = 1999-025C
CENTER_NAME    = EARTH
REF_FRAME      = TEME
TIME_SYSTEM    = UTC
MEAN_ELEMENT_THEORY = SGP/SGP4

EPOCH          = 2026-01-13T03:14:51.452736
MEAN_MOTION    = 14.18251988
ECCENTRICITY   = .00377936
INCLINATION    = 98.6727
RA_OF_ASC_NODE = 58.7064
ARG_OF_PERICENTER = 143.5261
MEAN_ANOMALY   = 235.2841

EPHEMERIS_TYPE = 0
CLASSIFICATION_TYPE = U
NORAD_CAT_ID   = 25732
ELEMENT_SET_NO = 999
REV_AT_EPOCH   = 38029
BSTAR          = .34458279E-4
MEAN_MOTION_DOT = .29E-6
MEAN_MOTION_DDOT = 0

CCSDS_OMM_VERS = 2.0
CREATION_DATE  = 
ORIGINATOR     = 

OBJECT_NAME    = OKEAN-O
OBJECT_ID      = 1999-039A
CENTER_NAME    = EARTH
REF_FRAME      = TEME
TIME_SYSTEM    = UTC
MEAN_ELEMENT_THEORY = SGP/SGP4

EPOCH          = 2026-01-13T03:44:31.896672
MEAN_MOTION    = 14.80225223
ECCENTRICITY   = .00016524
INCLINATION    = 97.9557
RA_OF_ASC_NODE = 73.5795
ARG_OF_PERICENTER = 109.2635
MEAN_ANOMALY   = 250.8755

EPHEMERIS_TYPE = 0
CLASSIFICATION_TYPE = U
NORAD_CAT_ID   = 25860
ELEMENT_SET_NO = 999
REV_AT_EPOCH   = 42617
BSTAR          = .95890743E-4
MEAN_MOTION_DOT = .677E-5
MEAN_MOTION_DDOT = 0

CCSDS_OMM_VERS = 2.0
CREATION_DATE  = 
ORIGINATOR     = 

OBJECT_NAME    = SL-16 R/B
OBJECT_ID      = 1999-039B
CENTER_NAME    = EARTH
REF_FRAME      = TEME
TIME_SYSTEM    = UTC
MEAN_ELEMENT_THEORY = SGP/SGP4

EPOCH          = 2026-01-13T02:54:07.592544
MEAN_MOTION    = 14.81639381
ECCENTRICITY   = .00161461
INCLINATION    = 98.0080
RA_OF_ASC_NODE = 72.2674
ARG_OF_PERICENTER = 79.0279
MEAN_ANOMALY   = 281.2749

EPHEMERIS_TYPE = 0
CLASSIFICATION_TYPE = U
NORAD_CAT_ID   = 25861
ELEMENT_SET_NO = 999
REV_AT_EPOCH   = 42863
BSTAR          = .65487182E-4
MEAN_MOTION_DOT = .462E-5
MEAN_MOTION_DDOT = 0

CCSDS_OMM_VERS = 2.0
CREATION_DATE  = 
ORIGINATOR     = 

OBJECT_NAME    = DELTA 2 R/B
OBJECT_ID      = 1999-041E
CENTER_NAME    = EARTH
REF_FRAME      = TEME
TIME_SYSTEM    = UTC
MEAN_ELEMENT_THEORY = SGP/SGP4

EPOCH          = 2026-01-12T19:07:42.830400
MEAN_MOTION    = 14.11541304
ECCENTRICITY   = .05037076
INCLINATION    = 51.7604
RA_OF_ASC_NODE = 164.4585
ARG_OF_PERICENTER = 183.3160
MEAN_ANOMALY   = 176.4385

EPHEMERIS_TYPE = 0
CLASSIFICATION_TYPE = U
NORAD_CAT_ID   = 25876
ELEMENT_SET_NO = 999
REV_AT_EPOCH   = 35513
BSTAR          = .52277589E-3
MEAN_MOTION_DOT = .3018E-4
MEAN_MOTION_DDOT = 0

CCSDS_OMM_VERS = 2.0
CREATION_DATE  = 
ORIGINATOR     = 

OBJECT_NAME    = HELIOS 1B
OBJECT_ID      = 1999-064A
CENTER_NAME    = EARTH
REF_FRAME      = TEME
TIME_SYSTEM    = UTC
MEAN_ELEMENT_THEORY = SGP/SGP4

EPOCH          = 2026-01-13T05:17:39.676704
MEAN_MOTION    = 14.87433965
ECCENTRICITY   = .00004854
INCLINATION    = 98.1747
RA_OF_ASC_NODE = 273.8216
ARG_OF_PERICENTER = 130.7584
MEAN_ANOMALY   = 229.3674

EPHEMERIS_TYPE = 0
CLASSIFICATION_TYPE = U
NORAD_CAT_ID   = 25977
ELEMENT_SET_NO = 999
REV_AT_EPOCH   = 67701
BSTAR          = .18464524E-3
MEAN_MOTION_DOT = .1613E-4
MEAN_MOTION_DDOT = 0

CCSDS_OMM_VERS = 2.0
CREATION_DATE  = 
ORIGINATOR     = 

OBJECT_NAME    = TERRA
OBJECT_ID      = 1999-068A
CENTER_NAME    = EARTH
REF_FRAME      = TEME
TIME_SYSTEM    = UTC
MEAN_ELEMENT_THEORY = SGP/SGP4

EPOCH          = 2026-01-13T05:39:43.864704
MEAN_MOTION    = 14.60943133
ECCENTRICITY   = .00024832
INCLINATION    = 97.9704
RA_OF_ASC_NODE = 68.7575
ARG_OF_PERICENTER = 28.3022
MEAN_ANOMALY   = 11.8560

EPHEMERIS_TYPE = 0
CLASSIFICATION_TYPE = U
NORAD_CAT_ID   = 25994
ELEMENT_SET_NO = 999
REV_AT_EPOCH   = 38698
BSTAR          = .89942952E-4
MEAN_MOTION_DOT = .396E-5
MEAN_MOTION_DDOT = 0

CCSDS_OMM_VERS = 2.0
CREATION_DATE  = 
ORIGINATOR     = 

OBJECT_NAME    = SL-16 R/B
OBJECT_ID      = 2000-006B
CENTER_NAME    = EARTH
REF_FRAME      = TEME
TIME_SYSTEM    = UTC
MEAN_ELEMENT_THEORY = SGP/SGP4

EPOCH          = 2026-01-13T06:26:22.625088
MEAN_MOTION    = 14.15814427
ECCENTRICITY   = .00189933
INCLINATION    = 71.0005
RA_OF_ASC_NODE = 214.3661
ARG_OF_PERICENTER = 266.4585
MEAN_ANOMALY   = 93.4366

EPHEMERIS_TYPE = 0
CLASSIFICATION_TYPE = U
NORAD_CAT_ID   = 26070
ELEMENT_SET_NO = 999
REV_AT_EPOCH   = 34071
BSTAR          = -.10335665E-3
MEAN_MOTION_DOT = -.251E-5
MEAN_MOTION_DDOT = 0

CCSDS_OMM_VERS = 2.0
CREATION_DATE  = 
ORIGINATOR     = 

OBJECT_NAME    = TITAN 4B R/B
OBJECT_ID      = 2000-047B
CENTER_NAME    = EARTH
REF_FRAME      = TEME
TIME_SYSTEM    = UTC
MEAN_ELEMENT_THEORY = SGP/SGP4

EPOCH          = 2026-01-13T05:30:09.122400
MEAN_MOTION    = 15.09042015
ECCENTRICITY   = .00370811
INCLINATION    = 67.9874
RA_OF_ASC_NODE = 196.3998
ARG_OF_PERICENTER = 105.4659
MEAN_ANOMALY   = 255.0591

EPHEMERIS_TYPE = 0
CLASSIFICATION_TYPE = U
NORAD_CAT_ID   = 26474
ELEMENT_SET_NO = 999
REV_AT_EPOCH   = 38454
BSTAR          = .20238114E-3
MEAN_MOTION_DOT = .3126E-4
MEAN_MOTION_DDOT = 0

CCSDS_OMM_VERS = 2.0
CREATION_DATE  = 
ORIGINATOR     = 

OBJECT_NAME    = ENVISAT
OBJECT_ID      = 2002-009A
CENTER_NAME    = EARTH
REF_FRAME      = TEME
TIME_SYSTEM    = UTC
MEAN_ELEMENT_THEORY = SGP/SGP4

EPOCH          = 2026-01-13T08:26:25.294560
MEAN_MOTION    = 14.39012908
ECCENTRICITY   = .00011428
INCLINATION    = 98.3642
RA_OF_ASC_NODE = 328.2982
ARG_OF_PERICENTER = 91.5341
MEAN_ANOMALY   = 59.6878

EPHEMERIS_TYPE = 0
CLASSIFICATION_TYPE = U
NORAD_CAT_ID   = 27386
ELEMENT_SET_NO = 999
REV_AT_EPOCH   = 25121
BSTAR          = .45983065E-4
MEAN_MOTION_DOT = .99E-6
MEAN_MOTION_DDOT = 0

