SL-16 R/B               
1 25400U 98043G   26013.30222088  .00000052  00000+0  40634-4 0  9999
2 25400  98.8166 326.3041 0009941 169.0689 191.0708 14.26034324431094
SL-16 R/B               
1 25407U 98045B   26013.19671020 -.00000017  00000+0  15308-4 0  9991
2 25407  71.0120 298.2739 0005331 119.4381 240.7275 14.16180032419243
ISS (ZARYA)             
1 25544U 98067A   26013.20897862  .00008852  00000+0  16699-3 0  9990
2 25544  51.6330 346.6801 0007741  12.6584 347.4598 15.49269250547732
CZ-4B R/B               
1 25732U 99025C   26013.13531774  .00000029  00000+0  34458-4 0  9995
2 25732  98.6727  58.7064 0037793 143.5261 235.2841 14.18251988380295
OKEAN-O                 
1 25860U 99039A   26013.15592473  .00000677  00000+0  95891-4 0  9994
2 25860  97.9557  73.5795 0001652 109.2635 250.8755 14.80225223426172
SL-16 R/B               
1 25861U 99039B   26013.12092121  .00000462  00000+0  65487-4 0  9997
2 25861  98.0080  72.2674 0016146  79.0279 281.2749 14.81639381428639
DELTA 2 R/B             
1 25876U 99041E   26012.79702350  .00003018  00000+0  52278-3 0  9993
2 25876  51.7604 164.4585 0503707 183.3160 176.4385 14.11541304355135
HELIOS 1B               
1 25977U 99064A   26013.22059811  .00001613  00000+0  18465-3 0  9995
2 25977  98.1747 273.8216 0000485 130.7584 229.3674 14.87433965677016
TERRA                   
1 25994U 99068A   26013.23592436  .00000396  00000+0  89943-4 0  9991
2 25994  97.9704  68.7575 0002483  28.3022  11.8560 14.60943133386988
SL-16 R/B               
1 26070U 00006B   26013.26831742 -.00000251  00000+0 -10336-3 0  9991
2 26070  71.0005 214.3661 0018993 266.4585  93.4366 14.15814427340712
TITAN 4B R/B            
1 26474U 00047B   26013.22927225  .00003126  00000+0  20238-3 0  9996
2 26474  67.9874 196.3998 0037081 105.4659 255.0591 15.09042015384548
ENVISAT                 
1 27386U 02009A   26013.35168165  .00000099  00000+0  45983-4 0  9994
2 27386  98.3642 328.2982 0001142  91.5341  59.6878 14.39012908251216
